{"type":"FeatureCollection","features":[{"type":"Feature","id":0,"geometry":{"type":"Polygon","coordinates":[[[11.432684355478269,49.912135480007748],[11.435983593891081,49.912943422070214],[11.436070184119728,49.913365304945145],[11.437080886189918,49.913549969500934],[11.441019380751021,49.913693225100332],[11.44314579478457,49.912819214375787],[11.444148760149149,49.912978424211495],[11.446347342182303,49.913996182246883],[11.449406750007475,49.914585142512145],[11.449397215475686,49.915102986089686],[11.451785560933113,49.91594466788542],[11.452529464565693,49.916773511005928],[11.454122350764131,49.917068857495636],[11.455800909638084,49.918559343130923],[11.458282789693483,49.917626464138216],[11.460527116936317,49.917499819230628],[11.460544977326251,49.917956633093013],[11.460946824962074,49.917452686155329],[11.461586740483078,49.917456212051057],[11.464778843166636,49.918253474802682],[11.466601036507672,49.919668615233178],[11.469054806726161,49.918549944886557],[11.469676080611611,49.918805919567319],[11.471948795621092,49.91827959546935],[11.472092867653604,49.917825002168982],[11.473066175996793,49.920676865531682],[11.475693481308086,49.922271270900588],[11.476264073354884,49.923751993799151],[11.47606669372418,49.925398648744554],[11.475021768991708,49.925942348894615],[11.473354975984227,49.929277985989813],[11.474134177742972,49.929549183136153],[11.473395682119438,49.930656002134505],[11.474047412313899,49.931403963408869],[11.471786285134712,49.935209688724306],[11.46764657493744,49.936168991953885],[11.463309128101534,49.937948588602588],[11.461227512234162,49.937462733006875],[11.460298610807856,49.937806392146427],[11.459441103913006,49.937420060492776],[11.457790987451807,49.93868742436792],[11.452965361179485,49.939233033454258],[11.450884101844579,49.940270340537303],[11.448531124510998,49.939647482093122],[11.443443965890667,49.939107323314786],[11.441718905397011,49.937591652584267],[11.439649754740588,49.936839400271055],[11.437392120252952,49.935285505688185],[11.436909347288413,49.934153311588787],[11.434307234219492,49.933060318750968],[11.428497892612926,49.92822814689508],[11.425767560007756,49.92822515262327],[11.422673070239224,49.926536519005424],[11.421886695428425,49.923287606878219],[11.418822202449858,49.923377768789635],[11.420655576939852,49.922983236751456],[11.420245112014962,49.922274366377287],[11.42052917306458,49.921018284628111],[11.418559083190651,49.918950959601354],[11.420298542426595,49.918277694653106],[11.419575916302893,49.918095113175802],[11.419503941925152,49.916680095403834],[11.418540329076471,49.916008138361761],[11.419842787589898,49.914451675546367],[11.420513885477495,49.91429201072846],[11.420583224981661,49.913751574172267],[11.421488831482769,49.913598190714843],[11.421626768228526,49.913961983226947],[11.422980818850833,49.914119635788879],[11.42457337368721,49.914981705312584],[11.427595521789376,49.915484964696482],[11.428328948973338,49.915059777656211],[11.430620730848258,49.914880108632289],[11.432278768015973,49.913595567430242],[11.431910724709361,49.912388430857604],[11.432684355478269,49.912135480007748]]]},"properties":{"FID":0,"Id":3,"GEBBEZ":"EZG Geislareuth","InPoly_FID":0,"MaxSimpTol":25,"MinSimpTol":25}},{"type":"Feature","id":1,"geometry":{"type":"Polygon","coordinates":[[[11.437114362058253,49.950964802577232],[11.43450039786271,49.951629051176901],[11.430672206191486,49.953453478536964],[11.427832339216787,49.95338132456444],[11.424188665379093,49.95255295027394],[11.423215777873022,49.950989434645031],[11.423020803513767,49.948434221510027],[11.416709730266422,49.945129032945601],[11.414816465819081,49.942698622988956],[11.412673873699637,49.941733996398618],[11.410167198840835,49.938281936860911],[11.402919416386032,49.933936588365277],[11.402399286545924,49.933465091694941],[11.402661909412899,49.93248030796714],[11.400769040748834,49.930114329829109],[11.39767872824188,49.928902031099632],[11.393126874787107,49.92842565872153],[11.390380501898377,49.92776461329936],[11.390955426895859,49.925860023076197],[11.390736395447654,49.923369281030716],[11.389074260731801,49.922295586491714],[11.389088140492555,49.920668945204916],[11.395049052002108,49.919005478862111],[11.397075290624326,49.916903658434641],[11.399128831700542,49.915988816525356],[11.398463466721834,49.915084005048286],[11.403929524040709,49.916124577670431],[11.408363382697193,49.916349491887139],[11.412977410938087,49.915172261615858],[11.415903639946139,49.915435590826384],[11.418699528880175,49.915146307355691],[11.421508886165775,49.913727973835165],[11.426168050931684,49.915297235779036],[11.428177222619494,49.915324007310048],[11.431028396988715,49.914765075456849],[11.433488487166578,49.912497951900789],[11.438017337227986,49.913514215680088],[11.441468035615873,49.913560369987486],[11.44374468200432,49.91301520949456],[11.445802291711727,49.913362086202611],[11.450856732335478,49.914795219714492],[11.45110469648451,49.915558658023343],[11.452529929864893,49.916609362119374],[11.455467460558259,49.917832866510672],[11.458211155317242,49.918044563094156],[11.460855360007553,49.917464449884001],[11.466519074969984,49.919288598033809],[11.474792406570547,49.917703267476249],[11.473412187615079,49.91851907840347],[11.47280470350781,49.920156839324314],[11.473694071323919,49.921185335841074],[11.47561388391267,49.922107734961479],[11.476106890307424,49.924103503461509],[11.47406128271478,49.927839059210946],[11.473257707851154,49.931718662327668],[11.471205445773796,49.935031890546668],[11.468249340390612,49.935662128655395],[11.465273938288734,49.937060542860763],[11.455557164394461,49.938981207549162],[11.452636945555779,49.939244348609257],[11.449938814495722,49.940638362712562],[11.447851645264068,49.943002388387008],[11.448140186149878,49.943934028105339],[11.450070521672043,49.944938218728907],[11.448217482952133,49.945450932414772],[11.446120279803278,49.947117225221334],[11.442561947633221,49.948445868262695],[11.438785127993608,49.950550955887586],[11.437114362058253,49.950964802577232]]]},"properties":{"FID":1,"Id":2,"GEBBEZ":"EZG Seitenbach","InPoly_FID":1,"MaxSimpTol":25,"MinSimpTol":25}},{"type":"Feature","id":2,"geometry":{"type":"Polygon","coordinates":[[[11.407848161032417,49.990744611244743],[11.402502013401991,49.991629021457634],[11.397842258658969,49.993849390589602],[11.394877305683977,49.998853654470444],[11.389308376655718,50.001011512587759],[11.386530405052845,49.998975398071792],[11.382732360708314,49.997665176835937],[11.38181767350507,49.996697450613368],[11.380848650840152,49.994159914470991],[11.378449977837056,49.993301613599428],[11.375857330512568,49.991382755961091],[11.371219562051325,49.993076021415177],[11.369725693241481,49.993240356621783],[11.367979134990405,49.992882158634629],[11.364872998639701,49.991151521231906],[11.361357632907836,49.990267706213423],[11.3611657776949,49.989548490347019],[11.358871570436579,49.987833793378663],[11.358272706651196,49.986583258447645],[11.350301855458751,49.985620752937621],[11.345584659396712,49.984443189633048],[11.345168271734241,49.98394756142482],[11.345276175153941,49.981041088931939],[11.340304046404531,49.982224259152751],[11.337977929872565,49.982405423198657],[11.330240759701477,49.97936007318544],[11.329022127659467,49.978506857680735],[11.32871044998584,49.975885538218535],[11.33031482453263,49.974904446083222],[11.329958733763739,49.972872658785043],[11.332222909373748,49.97170596370885],[11.332045746068516,49.969972007109376],[11.330651411162,49.968093924270924],[11.330824330059627,49.966820397266801],[11.328312895031848,49.964036873771256],[11.328920240094284,49.961502111253282],[11.328917260036544,49.957278957638444],[11.329519961550062,49.956419075317221],[11.331833367625961,49.956179895639892],[11.33287928943243,49.955697093775683],[11.332878720526297,49.954322293939526],[11.336620845708097,49.950022303521223],[11.33292924069292,49.950599209358124],[11.329438017287002,49.950237234610107],[11.325506971852295,49.946905512123735],[11.326442023929843,49.944610637303995],[11.323347193635323,49.942610313764384],[11.323339749759459,49.940940210509808],[11.324966591964408,49.939835459058706],[11.3259629625228,49.937684942200207],[11.327726071507184,49.936767054046811],[11.328694094513024,49.935695095869789],[11.329702125888153,49.93532332915936],[11.331594405523232,49.935455124800939],[11.333762291234423,49.935014795692929],[11.33645670857674,49.932734835422657],[11.332591717616735,49.929650677924819],[11.33226103352113,49.927387704434729],[11.333029511376861,49.926915604194356],[11.338047516177546,49.926497454331582],[11.335664445045682,49.923953439596225],[11.334989410958858,49.921821104513931],[11.335987028688619,49.920393294310514],[11.339503105487367,49.918906531209203],[11.339359556877346,49.915665695198989],[11.34148062641021,49.913550803749708],[11.341407577499934,49.910982907533914],[11.343062356815047,49.909507998405516],[11.343012520155368,49.908772241333494],[11.341784508846381,49.907293397180915],[11.3420027447784,49.904697568906109],[11.342958980589502,49.9033312284459],[11.338796566692517,49.901046466558206],[11.339753575309032,49.898001861876864],[11.336383496213358,49.895347689855626],[11.334502424907532,49.894632734784977],[11.336845764324767,49.893372896346492],[11.337254524365845,49.892751613278094],[11.336998166180233,49.891932699069997],[11.336137413065678,49.891473966772857],[11.33625916089793,49.89002417891367],[11.335227120100646,49.888406355374947],[11.332640955740835,49.887620154518096],[11.335004049881281,49.884662721315429],[11.333307684615317,49.881164425034328],[11.334023518497879,49.877193715861928],[11.334872245992214,49.876914428780786],[11.337217815903026,49.877904026535205],[11.340850411183741,49.878602036240892],[11.347325498912353,49.879327638486551],[11.35095493529829,49.878997661934321],[11.355188607744333,49.879674444158937],[11.361090462377094,49.882240274394519],[11.366598884246121,49.882388451546262],[11.367947178456554,49.881763716848425],[11.36907426732013,49.879777093375061],[11.371052527204975,49.879408423046193],[11.372023105199137,49.881577651586213],[11.375746618969885,49.884599949881832],[11.385540739953525,49.886712764850145],[11.387906001355503,49.888921629754819],[11.392024395413326,49.889923370676108],[11.394657029793562,49.891717794530329],[11.396998002122645,49.89186505889905],[11.40188043159541,49.89064437628798],[11.409567823219051,49.89089857890032],[11.413613240952179,49.888584824303258],[11.414347951069667,49.887238577141439],[11.416294161539467,49.886118267218635],[11.417488239481834,49.885949601179419],[11.420880152468415,49.886339962217257],[11.428527965416082,49.884729616856482],[11.430337740085051,49.883266436219927],[11.430825098471681,49.879937535613713],[11.43374840268919,49.876071786477816],[11.435555441110493,49.874613985238987],[11.440177310493475,49.87288694119205],[11.442106837748518,49.872522551920873],[11.444691985895204,49.870599059697284],[11.446727358507546,49.870029258738917],[11.45137960050627,49.869682381557205],[11.454649178808317,49.868988989522713],[11.460631890773319,49.86885898612303],[11.467104376397678,49.866641819392946],[11.475397415493472,49.867252881631785],[11.479150039332973,49.869016838154515],[11.481247310180903,49.870550668273459],[11.480993748396086,49.872059321083],[11.482072052683726,49.874881782825092],[11.484002932698331,49.876567707470684],[11.483653266753212,49.878384582385905],[11.485344561645027,49.880865754283931],[11.487455775102974,49.881297355307645],[11.488003732549894,49.881742005636809],[11.488188784493586,49.883695011294222],[11.492056928130669,49.887095162696482],[11.492391837009643,49.889048464018494],[11.491912878543118,49.889587788752877],[11.487607354812381,49.891649750077349],[11.484706506393525,49.892248237313645],[11.482461639066393,49.894911363154939],[11.484805430416131,49.896451197234661],[11.485189234994001,49.897126710894824],[11.485092375927007,49.898479808747958],[11.483279827445633,49.899441917978251],[11.484168342646672,49.900473171518811],[11.483839031259112,49.90146860827776],[11.485501728837969,49.902612285955662],[11.485951118819171,49.904786320319026],[11.48670792092158,49.905825772385363],[11.48699511198301,49.908631577959717],[11.488810373824796,49.90953779756142],[11.48912479483829,49.910343394378394],[11.48325431427144,49.91444127593995],[11.477604149868975,49.915721126151574],[11.476567247057575,49.917795599506739],[11.4740064778505,49.918768540839523],[11.473523763880991,49.920095355430057],[11.476212613108862,49.92187826239541],[11.47680021577955,49.924145062733714],[11.474747800210176,49.927944757482933],[11.47393373775782,49.931826637715204],[11.471728609744227,49.935328631106763],[11.468562707285919,49.936068172803758],[11.465510863582768,49.93748326867005],[11.455710051237046,49.939419779913379],[11.452970859967428,49.939649050641172],[11.450444770384319,49.940967022372881],[11.448547074596945,49.943105424566376],[11.448730965710963,49.943669232319394],[11.450669656076021,49.944708872652569],[11.450593668704379,49.945235054560044],[11.44863360067613,49.945817442778228],[11.446581643989894,49.947454048291874],[11.44294560982379,49.948824240882104],[11.439102149767225,49.950951256055625],[11.434830166452366,49.952027847071257],[11.432683178210468,49.953330817126201],[11.430824918673661,49.95389208548989],[11.427724048527807,49.953825401067874],[11.424891542452485,49.953196366065157],[11.42525098243553,49.955821693885589],[11.424660666116822,49.95705296019711],[11.428473779417322,49.961718590443837],[11.428466121175466,49.964539390333009],[11.426682895603349,49.966571199316668],[11.423078334992683,49.969215467386071],[11.421615384978415,49.97186246391162],[11.420547728145529,49.97201295024491],[11.416434133789757,49.971194744078929],[11.414803400209777,49.971730597229595],[11.412333526758109,49.973563904754677],[11.412127405508452,49.974834178106619],[11.414200604523334,49.977632518467765],[11.414897069391222,49.979557564211341],[11.415428575908352,49.984610092876892],[11.414185233584044,49.98772743900345],[11.407848161032417,49.990744611244743]]]},"properties":{"FID":2,"Id":0,"GEBBEZ":"EZG Plankenfels","InPoly_FID":2,"MaxSimpTol":25,"MinSimpTol":25}},{"type":"Feature","id":3,"geometry":{"type":"Polygon","coordinates":[[[11.432758243468138,49.952495940140579],[11.430672206191499,49.953453478536957],[11.427832339216792,49.95338132456444],[11.42418866537912,49.952552950273947],[11.423215777873036,49.950989434645052],[11.423020803513792,49.948434221510027],[11.416709730266421,49.945129032945601],[11.41481646581909,49.942698622988964],[11.412673873699633,49.941733996398625],[11.410167198840831,49.938281936860918],[11.402919416386048,49.933936588365285],[11.402399286545954,49.933465091694941],[11.40266190941291,49.932480307967168],[11.400769040748846,49.930114329829109],[11.397678728241905,49.928902031099639],[11.393126874787095,49.92842565872153],[11.390380501898379,49.927764613299374],[11.390955426895875,49.925860023076197],[11.390736395447664,49.923369281030752],[11.389074260731796,49.922295586491714],[11.389088140492564,49.920668945204916],[11.395049052002118,49.919005478862132],[11.397075290624324,49.916903658434641],[11.399155621897053,49.915874291853555],[11.398485012464933,49.915231979162563],[11.398450056003403,49.914092211183601],[11.395793264933289,49.910422418310773],[11.393711380283623,49.908934648198468],[11.393262539335662,49.907328057698237],[11.396175671267994,49.906662978944489],[11.397461527415977,49.905144140328169],[11.398953225505078,49.904333643342909],[11.40981962005033,49.900906894835607],[11.408786797849261,49.898903250877439],[11.410563542650076,49.896323500741126],[11.41192378780662,49.89560716768537],[11.411653253674022,49.893803793372186],[11.412292153492736,49.892597219817041],[11.411760604317257,49.891911507974754],[11.40982759792157,49.891358590418868],[11.414231447921619,49.888826206264788],[11.414923747417093,49.887490954841951],[11.416610560345919,49.886518644336583],[11.42094763676719,49.886791214642741],[11.425750972687194,49.886006210443242],[11.4293941099856,49.884829183584856],[11.431101008141241,49.883228254634396],[11.431495910923173,49.880056659837827],[11.43354904818837,49.877172194760654],[11.435947060432239,49.874985518139781],[11.44049381434648,49.873287252212727],[11.442499192781744,49.872927375394823],[11.445008511046099,49.870999358183205],[11.44687992854816,49.870467854391464],[11.451543610575117,49.870120467884306],[11.456963860366399,49.869217518245371],[11.46076486927994,49.869309158512387],[11.467257118621841,49.86708038571868],[11.475204462930629,49.867684775316157],[11.47872467173141,49.869372504276903],[11.480649234740541,49.87078015951068],[11.480297490511571,49.872123098336175],[11.481418543336558,49.87507151148499],[11.483316065292653,49.876638802458928],[11.482956329105038,49.878503893554523],[11.484729842749118,49.881103195096657],[11.487405553840897,49.881971533021201],[11.487521512264728,49.883860698201957],[11.491369925151941,49.887166307483326],[11.491390096438776,49.889291129765049],[11.487290339236919,49.891249576972378],[11.484223842313924,49.891916776035082],[11.481763377290649,49.894893441665026],[11.481797485141829,49.895318080081864],[11.48425630531532,49.896727346342026],[11.484521292691904,49.897252889238345],[11.484471736620762,49.898276430231874],[11.482764281745522,49.898893074177224],[11.482565135990395,49.899441520858716],[11.483481136040483,49.90054427219647],[11.483007128755377,49.901491012969409],[11.484833710967521,49.902738466522933],[11.485287938669487,49.90493398438938],[11.48602064281808,49.905896889204342],[11.486360448253782,49.908880183984103],[11.48846941496271,49.910191892126093],[11.482862009063794,49.914069917923548],[11.477062310552874,49.915397720772816],[11.475990774783966,49.917543541338958],[11.474792406570566,49.917703267476249],[11.473412187615091,49.91851907840352],[11.472815709798967,49.920172932742844],[11.473694071323928,49.921185335841074],[11.475613883912674,49.922107734961521],[11.47626407335491,49.923751993799144],[11.476066693724182,49.925398648744554],[11.474007915869677,49.92832588260692],[11.473539588589023,49.930983339864568],[11.474047412313904,49.931403963408869],[11.471786285134719,49.935209688724306],[11.467646574937454,49.936168991953913],[11.463309128101542,49.937948588602588],[11.46240897180772,49.937597491947756],[11.460546656891543,49.937813926533757],[11.457790987451817,49.93868742436792],[11.452272962388173,49.939437217282354],[11.449938814495711,49.940638362712555],[11.447851645264086,49.943002388387036],[11.448140186149892,49.943934028105346],[11.450070521672057,49.944938218728936],[11.448217482952142,49.945450932414765],[11.446120279803292,49.947117225221319],[11.442561947633227,49.948445868262716],[11.438785127993606,49.950550955887593],[11.43450039786271,49.951629051176901],[11.432758243468138,49.952495940140579]]]},"properties":{"FID":3,"Id":1,"GEBBEZ":"EZG Wehr","InPoly_FID":3,"MaxSimpTol":25,"MinSimpTol":25}}]}